{
  "norad_id": 66265,
  "name": "STARLINK-35801",
  "history": [
    {
      "epoch": "2026-04-14T01:33:16.392384Z",
      "apogee_km": 475.46654616730484,
      "perigee_km": 474.9554234745965,
      "latitude_deg": 1.0772727525618252e-05,
      "longitude_deg": 161.2910496244544,
      "height_km": 475.8557082564392,
      "semi_major_axis_km": 6853.34798482095,
      "eccentricity": 3.729e-05,
      "inclination_deg": 53.16,
      "raan_deg": 26.8559,
      "arg_perigee_deg": 356.2537,
      "mean_anomaly_deg": 3.8461,
      "mean_motion_rev_day": 15.30201368
    },
    {
      "epoch": "2026-04-15T04:12:10.620288Z",
      "apogee_km": 475.9958769688692,
      "perigee_km": 474.40864359618627,
      "latitude_deg": 5.581679381805178e-05,
      "longitude_deg": 115.3136245818018,
      "height_km": 475.9985827972892,
      "semi_major_axis_km": 6853.339260282527,
      "eccentricity": 0.0001158,
      "inclination_deg": 53.1612,
      "raan_deg": 21.6988,
      "arg_perigee_deg": 82.6125,
      "mean_anomaly_deg": 277.5008,
      "mean_motion_rev_day": 15.3020429
    },
    {
      "epoch": "2026-04-16T00:34:52.350528Z",
      "apogee_km": 476.22209115573787,
      "perigee_km": 474.2126876487646,
      "latitude_deg": -5.7600048635696975e-05,
      "longitude_deg": 164.85636044864535,
      "height_km": 476.10326401334646,
      "semi_major_axis_km": 6853.3543894022505,
      "eccentricity": 0.0001466,
      "inclination_deg": 53.1615,
      "raan_deg": 17.7524,
      "arg_perigee_deg": 89.31,
      "mean_anomaly_deg": 270.8068,
      "mean_motion_rev_day": 15.30199223
    },
    {
      "epoch": "2026-04-17T22:02:25.035648Z",
      "apogee_km": 476.3704183899099,
      "perigee_km": 474.0183550579859,
      "latitude_deg": -1.2663600327424869e-05,
      "longitude_deg": -167.6940292098711,
      "height_km": 476.3060642124073,
      "semi_major_axis_km": 6853.331386723948,
      "eccentricity": 0.0001716,
      "inclination_deg": 53.1616,
      "raan_deg": 8.9551,
      "arg_perigee_deg": 100.4851,
      "mean_anomaly_deg": 259.6343,
      "mean_motion_rev_day": 15.30206927
    },
    {
      "epoch": "2026-04-18T10:34:50.499264Z",
      "apogee_km": 476.0942700368405,
      "perigee_km": 474.2992448590903,
      "latitude_deg": -5.842661821125681e-05,
      "longitude_deg": 1.259722191747696,
      "height_km": 476.0639922119189,
      "semi_major_axis_km": 6853.333757447966,
      "eccentricity": 0.00013096,
      "inclination_deg": 53.1624,
      "raan_deg": 6.53,
      "arg_perigee_deg": 88.017,
      "mean_anomaly_deg": 272.098,
      "mean_motion_rev_day": 15.30206133
    },
    {
      "epoch": "2026-04-19T10:05:37.544352Z",
      "apogee_km": 475.675535393445,
      "perigee_km": 474.605875809154,
      "latitude_deg": 8.6276527375553e-06,
      "longitude_deg": 3.0452030191278077,
      "height_km": 476.1011977246987,
      "semi_major_axis_km": 6853.277705601299,
      "eccentricity": 7.804e-05,
      "inclination_deg": 53.1611,
      "raan_deg": 1.9771,
      "arg_perigee_deg": 263.5831,
      "mean_anomaly_deg": 96.5081,
      "mean_motion_rev_day": 15.30224906
    },
    {
      "epoch": "2026-04-20T09:36:27.030240Z",
      "apogee_km": 476.1519328246213,
      "perigee_km": 474.32852327932596,
      "latitude_deg": 3.077330933662312e-05,
      "longitude_deg": 4.8242514663452125,
      "height_km": 476.00994317992775,
      "semi_major_axis_km": 6853.377228051973,
      "eccentricity": 0.00013303,
      "inclination_deg": 53.161,
      "raan_deg": 357.428,
      "arg_perigee_deg": 81.904,
      "mean_anomaly_deg": 278.2112,
      "mean_motion_rev_day": 15.30191574
    },
    {
      "epoch": "2026-04-21T09:07:13.745280Z",
      "apogee_km": 475.1827262353918,
      "perigee_km": 475.09390778728357,
      "latitude_deg": 3.5071956137611e-05,
      "longitude_deg": 6.612162721241632,
      "height_km": 476.0497783293412,
      "semi_major_axis_km": 6853.275317011337,
      "eccentricity": 6.48e-06,
      "inclination_deg": 53.1593,
      "raan_deg": 352.8762,
      "arg_perigee_deg": 254.6562,
      "mean_anomaly_deg": 105.4432,
      "mean_motion_rev_day": 15.30225706
    },
    {
      "epoch": "2026-04-22T19:36:38.448288Z",
      "apogee_km": 481.6101881990835,
      "perigee_km": 470.4022931719155,
      "latitude_deg": -3.5031356498920426e-06,
      "longitude_deg": -158.83146081672288,
      "height_km": 476.49742598458056,
      "semi_major_axis_km": 6854.143240685499,
      "eccentricity": 0.0008176,
      "inclination_deg": 53.1596,
      "raan_deg": 346.202,
      "arg_perigee_deg": 85.9677,
      "mean_anomaly_deg": 274.2258,
      "mean_motion_rev_day": 15.29935062
    },
    {
      "epoch": "2026-04-23T08:00:01.999872Z",
      "apogee_km": 476.1009500387481,
      "perigee_km": 474.28111731268655,
      "latitude_deg": -26.496833014140726,
      "longitude_deg": -9.389507697088211,
      "height_km": 483.47867376296625,
      "semi_major_axis_km": 6853.328033675717,
      "eccentricity": 0.00013277,
      "inclination_deg": 53.1586,
      "raan_deg": 343.805,
      "arg_perigee_deg": 87.4939,
      "mean_anomaly_deg": 238.9071,
      "mean_motion_rev_day": 15.3020805
    },
    {
      "epoch": "2026-04-24T20:11:12.878592Z",
      "apogee_km": 470.7023844319219,
      "perigee_km": 468.4508561935636,
      "latitude_deg": 2.8772749761450463e-05,
      "longitude_deg": -178.87865425367232,
      "height_km": 469.751638777982,
      "semi_major_axis_km": 6847.713620312742,
      "eccentricity": 0.0001644,
      "inclination_deg": 53.1593,
      "raan_deg": 336.7932,
      "arg_perigee_deg": 49.9923,
      "mean_anomaly_deg": 310.1223,
      "mean_motion_rev_day": 15.32090353
    },
    {
      "epoch": "2026-04-25T20:00:01.000224Z",
      "apogee_km": 466.2390314855984,
      "perigee_km": 464.23255458267977,
      "latitude_deg": 52.29359752281086,
      "longitude_deg": -107.15637552836711,
      "height_km": 470.5745463983335,
      "semi_major_axis_km": 6843.372793034138,
      "eccentricity": 0.0001466,
      "inclination_deg": 53.1594,
      "raan_deg": 332.1649,
      "arg_perigee_deg": 80.0061,
      "mean_anomaly_deg": 0.582,
      "mean_motion_rev_day": 15.33548317
    },
    {
      "epoch": "2026-04-26T22:00:00.999936Z",
      "apogee_km": 466.24067668151565,
      "perigee_km": 464.16016523879443,
      "latitude_deg": -41.29770021012261,
      "longitude_deg": 101.30852643874778,
      "height_km": 479.75521989657227,
      "semi_major_axis_km": 6843.337420960154,
      "eccentricity": 0.00015201,
      "inclination_deg": 53.16,
      "raan_deg": 327.1073,
      "arg_perigee_deg": 89.658,
      "mean_anomaly_deg": 215.1337,
      "mean_motion_rev_day": 15.33560207
    },
    {
      "epoch": "2026-04-27T20:00:03.000384Z",
      "apogee_km": 465.11893634398893,
      "perigee_km": 460.25784582108554,
      "latitude_deg": -24.220338779897393,
      "longitude_deg": 147.41376158017013,
      "height_km": 469.00221936993097,
      "semi_major_axis_km": 6840.825391082537,
      "eccentricity": 0.0003553,
      "inclination_deg": 53.1599,
      "raan_deg": 322.8256,
      "arg_perigee_deg": 43.1845,
      "mean_anomaly_deg": 286.2758,
      "mean_motion_rev_day": 15.34404996
    },
    {
      "epoch": "2026-04-28T20:00:01.000224Z",
      "apogee_km": 463.854535348597,
      "perigee_km": 461.66681627187154,
      "latitude_deg": 52.859021549439774,
      "longitude_deg": -98.27892164827519,
      "height_km": 468.14299394665187,
      "semi_major_axis_km": 6840.8976758102335,
      "eccentricity": 0.0001599,
      "inclination_deg": 53.1603,
      "raan_deg": 318.1509,
      "arg_perigee_deg": 90.1267,
      "mean_anomaly_deg": 6.1301,
      "mean_motion_rev_day": 15.34380676
    },
    {
      "epoch": "2026-04-29T20:00:01.999008Z",
      "apogee_km": 463.79360118675413,
      "perigee_km": 461.72628213098506,
      "latitude_deg": -33.44840832554377,
      "longitude_deg": 5.161845949501297,
      "height_km": 474.0355435742161,
      "semi_major_axis_km": 6840.896941658869,
      "eccentricity": 0.0001511,
      "inclination_deg": 53.1602,
      "raan_deg": 313.476,
      "arg_perigee_deg": 84.5748,
      "mean_anomaly_deg": 138.642,
      "mean_motion_rev_day": 15.34380923
    },
    {
      "epoch": "2026-04-30T12:13:39.333792Z",
      "apogee_km": 463.64201845877596,
      "perigee_km": 461.7295980345016,
      "latitude_deg": -1.0142973266199808e-05,
      "longitude_deg": -91.55660363111302,
      "height_km": 463.85882235371906,
      "semi_major_axis_km": 6840.8228082466385,
      "eccentricity": 0.00013978,
      "inclination_deg": 53.1606,
      "raan_deg": 310.3125,
      "arg_perigee_deg": 106.6097,
      "mean_anomaly_deg": 253.5059,
      "mean_motion_rev_day": 15.34405865
    },
    {
      "epoch": "2026-05-02T04:52:21.018720Z",
      "apogee_km": 463.69938576091863,
      "perigee_km": 461.7278526124692,
      "latitude_deg": 9.706515998801873e-06,
      "longitude_deg": 9.180794689137066,
      "height_km": 463.29718703225325,
      "semi_major_axis_km": 6840.850619186694,
      "eccentricity": 0.0001441,
      "inclination_deg": 53.1604,
      "raan_deg": 302.3928,
      "arg_perigee_deg": 71.2993,
      "mean_anomaly_deg": 288.8166,
      "mean_motion_rev_day": 15.34396508
    },
    {
      "epoch": "2026-05-03T16:49:39.141408Z",
      "apogee_km": 463.4557616920292,
      "perigee_km": 461.9124724480189,
      "latitude_deg": 3.102500577196572e-05,
      "longitude_deg": -178.6220252937626,
      "height_km": 463.4806936484257,
      "semi_major_axis_km": 6840.821117070024,
      "eccentricity": 0.0001128,
      "inclination_deg": 53.1594,
      "raan_deg": 295.3921,
      "arg_perigee_deg": 82.3083,
      "mean_anomaly_deg": 277.8048,
      "mean_motion_rev_day": 15.34406434
    }
  ]
}